<?xml version="1.0" encoding="utf-8" ?>
<kml xmlns="http://www.opengis.net/kml/2.2">
<Document id="root_doc">
<Schema name="sacred_geography" id="sacred_geography">
	<SimpleField name="fid" type="float"></SimpleField>
	<SimpleField name="local_name" type="string"></SimpleField>
	<SimpleField name="district" type="string"></SimpleField>
	<SimpleField name="state" type="string"></SimpleField>
	<SimpleField name="deity" type="string"></SimpleField>
	<SimpleField name="significance" type="string"></SimpleField>
	<SimpleField name="mining_company" type="string"></SimpleField>
</Schema>
<Folder><name>sacred_geography</name>
  <Placemark id="sacred_geography.1">
	<name>Raoghat</name>
	<Style><LineStyle><color>FF232323</color><width>0.737006</width></LineStyle><PolyStyle><fill>0</fill></PolyStyle></Style>
	<ExtendedData><SchemaData schemaUrl="#sacred_geography">
		<SimpleData name="fid">1</SimpleData>
		<SimpleData name="local_name">रावघाट</SimpleData>
		<SimpleData name="district">	Kanker / Narayanpur</SimpleData>
		<SimpleData name="state">Chhattisgarh</SimpleData>
		<SimpleData name="deity">Raja Rao</SimpleData>
		<SimpleData name="significance">Home to tribal communities resisting displacement from these mineral-rich hills, though their struggle has received comparatively little media attention</SimpleData>
		<SimpleData name="mining_company">SAIL / Bhilai Steel Plant (BSP)</SimpleData>
	</SchemaData></ExtendedData>
      <Polygon><outerBoundaryIs><LinearRing><coordinates>81.1093989114309,19.9251414032559 81.114350721986,19.9268871643503 81.1211594614992,19.9140844686146 81.1100178877503,19.8788717127807 81.1050660771953,19.8759612173685 81.1075419824728,19.8649008473888 81.1025901719177,19.8311328422455 81.1084704469519,19.8130814812059 81.1298251299705,19.8180312519167 81.1446805616357,19.8395755169391 81.1672731972931,19.8474355347401 81.1966745724637,19.866647272894 81.2136964212467,19.8625722501303 81.214315397566,19.8465622186457 81.2050307527753,19.8322973757783 81.1941986671861,19.8288037495723 81.1901753211101,19.8186135677525 81.1771768184032,19.8116256369693 81.17036807889,19.7924072443971 81.166344732814,19.7849813348766 81.1626308748977,19.7826515664172 81.155357903145,19.7621190090023 81.1570600880233,19.7549829620773 81.1688206380915,19.7344468424823 81.183366581597,19.7184239224231 81.1886278803117,19.717841240513 81.1872351835931,19.7233766329026 81.1917227619086,19.7245419542408 81.1876994158327,19.7280378672682 81.1912585296691,19.7299314548883 81.2085898666117,19.7222113030671 81.2000789422203,19.7210459647348 81.1994599659009,19.715073472438 81.1895563447908,19.7067698807598 81.1824381171179,19.7074982832447 81.1749330292454,19.7042932875014 81.1645651758958,19.7038562376524 81.1607739459396,19.7025450809417 81.1476980711927,19.7041476043511 81.1391871468012,19.7010882275501 81.1305988503698,19.7132525462587 81.1261112720543,19.7034920285328 81.1241382850363,19.701598127746 81.1216623797587,19.7033463446528 81.1190704164213,19.7096834707972 81.116401081044,19.7072069226488 81.1175229756229,19.7024722385871 81.1118361306885,19.6996677827223 81.1052595072951,19.7010882275501 81.1058011115746,19.7034920285328 81.101390905299,19.7044389705192 81.1001529526603,19.7028364500282 81.095355886185,19.704803177483 81.0945821657858,19.7034920285328 81.092415748668,19.7047303361566 81.0937310733467,19.71121308432 81.0959748625044,19.7135438958409 81.0995339763409,19.7147821256429 81.1001529526603,19.7158746733873 81.0977544194227,19.7160931820403 81.0950463980253,19.7176227342492 81.0942726776261,19.7225026363225 81.0920288884684,19.7226483027511 81.0840982543763,19.7261442572059 81.0814676050189,19.7312423870161 81.0836340221367,19.7382338433279 81.0813128609391,19.7383794954132 81.0769800267034,19.726726908846 81.0871931359732,19.7136167331536 81.08038439646,19.7098291489058 81.0751230977453,19.7101205047251 81.0680048700724,19.7013795992896 81.0581012489623,19.7007968552801 81.0438647936165,19.6973003466572 81.0395319593809,19.7019623411768 81.0240575513964,19.7002141091483 81.0147729066056,19.7022537113246 81.0054882618149,19.6990486105181 81.0005364512599,19.7077896433099 81.0045597973358,19.721191632491 80.9992984986211,19.7316793620014 80.9965131051839,19.7360490461072 81.0039408210165,19.7436228819959 80.998370034142,19.7520701981244 81.0045597973358,19.7608083304406 81.0095116078909,19.7590607422698 81.0107108745097,19.764521891721 81.0186028225818,19.7700556657091 81.0199955193004,19.776026101145 81.0275779792128,19.7805401843184 81.0269590028934,19.7884031205184 81.0305181167299,19.7933536589644 81.029434908171,19.8010703677591 81.036398391764,19.8033998667013 81.0372494842032,19.8075492022126 81.0418918065985,19.8095146391554 81.0403443658001,19.81286310542 81.0439034796365,19.8194870375069 81.0490100342714,19.8271296931254 81.0557414017447,19.8577694103124 81.0579078188626,19.8833828750227 81.0480041977524,19.8932778777224 81.0761676202843,19.9273236016109 81.0730727386874,19.9028812596083 81.0910230519494,19.8915317456991 81.0885471466719,19.9153938828135 81.1015456493789,19.9116111011054 81.1030930901774,19.9252868840836 81.1093989114309,19.9251414032559</coordinates></LinearRing></outerBoundaryIs></Polygon>
  </Placemark>
  <Placemark id="sacred_geography.2">
	<name>Surjagadh</name>
	<Style><LineStyle><color>FF232323</color><width>0.737006</width></LineStyle><PolyStyle><fill>0</fill></PolyStyle></Style>
	<ExtendedData><SchemaData schemaUrl="#sacred_geography">
		<SimpleData name="fid">2</SimpleData>
		<SimpleData name="local_name">सुरजागढ</SimpleData>
		<SimpleData name="district">Gadchiroli</SimpleData>
		<SimpleData name="state">Maharashtra</SimpleData>
		<SimpleData name="deity">Thakurdeo, &quot;God of Gods,&quot; revered by Maria/Madia Gonds; legend holds he revealed this mountain (Surjagad) to them after leading a hunter here in the form of a wild boar</SimpleData>
		<SimpleData name="significance">Sacred to roughly 70 villages of the Surjagad Elaka, closely linked to the Madia Gonds' gods of origin</SimpleData>
		<SimpleData name="mining_company">Lloyds Metals and Energy Ltd (LMEL). a separate proposed lease to Gopani Iron Ore &amp; Power Ltd</SimpleData>
	</SchemaData></ExtendedData>
      <Polygon><outerBoundaryIs><LinearRing><coordinates>80.4839073374713,19.7882063544186 80.4833798243183,19.7840699361068 80.4835556620359,19.7782787700078 80.481445609424,19.7673577126926 80.4789838813766,19.7531261215532 80.4737087498467,19.7460098498693 80.4721262103877,19.7339280109866 80.4652685393988,19.7233349619739 80.4480364430676,19.7279695073372 80.4427613115376,19.7110858737432 80.4402995834903,19.6971803663164 80.4223641362885,19.6786378103252 80.4086487943106,19.6577748693501 80.3903616716734,19.6438647340664 80.3625793122823,19.6438647340664 80.3337419265852,19.6574436896683 80.3027944882761,19.6796312159659 80.282397313027,19.694200457501 80.2704403482257,19.7273074376578 80.2433613397053,19.7481613143092 80.2219091381502,19.7736456855711 80.196236831371,19.7938317109002 80.1818181385225,19.8054127012577 80.1346936301882,19.8384965989775 80.1761913315572,19.8007804062441 80.1979952085477,19.7822498780176 80.2187440592322,19.7597456242321 80.2314043749041,19.7448513570051 80.2521532255886,19.7223418276234 80.2644618658252,19.7044643542777 80.2697369973551,19.6875782393066 80.2869690936863,19.6673787826226 80.3042011900175,19.6475079812868 80.3330385757146,19.6307814829755 80.3391928958328,19.6188565790437 80.3388412203975,19.6094154026048 80.3398962467035,19.602292744801 80.3490398080221,19.6009675643681 80.3588867202113,19.6077589987032 80.3675027683769,19.6085872027864 80.3738329262129,19.6110717894462 80.3826248120961,19.6193534677084 80.3919442111324,19.6215066341716 80.4142756012759,19.6286284407936 80.4177923556292,19.6302846296486 80.4283426186891,19.6506543555109 80.4364311537017,19.6637359866804 80.443640500126,19.6619145576724 80.4522565482916,19.6733395428816 80.4664994034224,19.6764854103057 80.476697991047,19.6856743008842 80.4886549558483,19.6830253054248 80.4907650084603,19.690972160349 80.4992052189082,19.6919654894835 80.4823247980123,19.7048782072745 80.4731812366937,19.7048782072745 80.4724778858231,19.7164656564496 80.4823247980123,19.726728124438 80.479863069965,19.7396380350754 80.4875999295423,19.7548637675936 80.4914683593309,19.7684333045857 80.4890066312836,19.7813398411748 80.4858415523656,19.7949071240675 80.4839073374713,19.7882063544186</coordinates></LinearRing></outerBoundaryIs></Polygon>
  </Placemark>
  <Placemark id="sacred_geography.3">
	<name>Niyamgiri</name>
	<Style><LineStyle><color>FF232323</color><width>0.737006</width></LineStyle><PolyStyle><fill>0</fill></PolyStyle></Style>
	<ExtendedData><SchemaData schemaUrl="#sacred_geography">
		<SimpleData name="fid">3</SimpleData>
		<SimpleData name="local_name">नियमगिरी</SimpleData>
		<SimpleData name="district">Rayagada / Kalahandi</SimpleData>
		<SimpleData name="state">Odisha</SimpleData>
		<SimpleData name="deity">Niyam Raja — supreme deity of the Dongria Kondh, believed to reside in the Niyamgiri hills</SimpleData>
		<SimpleData name="significance">Sacred abode of Niyam Raja; site of a landmark 2013 Supreme Court-mandated gram sabha referendum where villages rejected Vedanta's mining bid</SimpleData>
		<SimpleData name="mining_company">Vedanta Ltd / Odisha Mining Corporation (OMC)</SimpleData>
	</SchemaData></ExtendedData>
      <Polygon><outerBoundaryIs><LinearRing><coordinates>83.4621100126264,19.7569532981817 83.440726209333,19.7368269833621 83.4385140917509,19.7187805443183 83.4193424060396,19.7021204844003 83.3773121719802,19.6847644105093 83.3537162511046,19.6736555359362 83.3168476247367,19.6750441873818 83.296938566498,19.6437966204828 83.3043122917716,19.5972611949135 83.3242213500103,19.5639141050814 83.3175849972641,19.5437635612725 83.3116860170452,19.5069302060397 83.3249587225377,19.4860774174782 83.372887936816,19.4770403748675 83.3714131917613,19.4624410103962 83.362564721433,19.4471450280063 83.3492920159405,19.4394964960243 83.3655142115424,19.3970753726724 83.3773121719802,19.3880333748147 83.3721505642886,19.3546431877006 83.3920596225273,19.3435116055938 83.4090191906566,19.3177669145876 83.4296656214226,19.3414243494114 83.4289282488953,19.3664696613602 83.4473625620792,19.3810776501043 83.461372640099,19.4325429724145 83.4672716203179,19.4631362480466 83.4805443258104,19.4826016915326 83.4650595027359,19.5124904957448 83.4827564433925,19.5305601165169 83.4812816983378,19.5618296828049 83.4945544038302,19.5923985077 83.4989786389944,19.6236560752615 83.4798069532831,19.6396298183651 83.4680089928453,19.6861529656631 83.458054463726,19.7163510603484 83.4735392868005,19.7163510603484 83.486811992293,19.7406442380703 83.4698524241637,19.7593821645158 83.4621100126264,19.7569532981817</coordinates></LinearRing></outerBoundaryIs></Polygon>
  </Placemark>
  <Placemark id="sacred_geography.4">
	<name>Sijimali</name>
	<Style><LineStyle><color>FF232323</color><width>0.737006</width></LineStyle><PolyStyle><fill>0</fill></PolyStyle></Style>
	<ExtendedData><SchemaData schemaUrl="#sacred_geography">
		<SimpleData name="fid">4</SimpleData>
		<SimpleData name="local_name">सिजिमाली</SimpleData>
		<SimpleData name="district">Rayagada / Kalahandi</SimpleData>
		<SimpleData name="state">Odisha</SimpleData>
		<SimpleData name="deity">Teej Raja (also called Tij Raja) — a living deity associated with the hill's sacred and biodiversity significance</SimpleData>
		<SimpleData name="significance">A sacred abode of the supreme deity for the Kondh community, sitting amid reserved forests and water bodies</SimpleData>
		<SimpleData name="mining_company">Vedanta Limited</SimpleData>
	</SchemaData></ExtendedData>
      <Polygon><outerBoundaryIs><LinearRing><coordinates>83.1362835270997,19.5549682691635 83.1342557526495,19.5452401951934 83.1390486740773,19.5367276494291 83.1379426152862,19.5330792781331 83.1311219194082,19.5332530119686 83.1316749488037,19.528735871509 83.1160057825973,19.5216124318376 83.1239325372664,19.5144886781549 83.1158214394655,19.5125773737544 83.1176648707839,19.506669562769 83.1088164004556,19.5125773737544 83.1005209595228,19.5059745119938 83.111765890565,19.4905088598558 83.1016270183138,19.4807769055493 83.1108441749058,19.4823410090794 83.1180335570476,19.4870332290344 83.1101068023784,19.4762582993989 83.1195083021023,19.4783438255919 83.1148997238063,19.4706967649737 83.1265133411122,19.4750417300549 83.1349931251768,19.4750417300549 83.1425511935822,19.4762582993989 83.1484501738011,19.4823410090794 83.1480814875374,19.4776486531773 83.1528744089653,19.4773010658514 83.1447633111643,19.4726085639628 83.1630132812165,19.4694801538742 83.1707556927537,19.4806031153357 83.165778428194,19.4903350800868 83.1569299578657,19.5031942790257 83.1580360166568,19.5101447718404 83.1713087221492,19.5236973735173 83.1608011636344,19.5221336697794 83.1549021834155,19.5301257743361 83.161169849898,19.5367276494291 83.1550865265473,19.5384649401218 83.1604324773707,19.5408971156861 83.1532430952289,19.5504517363334 83.1478971444056,19.5440241447108 83.1434729092414,19.5549682691635 83.1375739290226,19.5568790719093 83.1362835270997,19.5549682691635</coordinates></LinearRing></outerBoundaryIs></Polygon>
  </Placemark>
  <Placemark id="sacred_geography.5">
	<name>Bailadilla</name>
	<Style><LineStyle><color>FF232323</color><width>0.737006</width></LineStyle><PolyStyle><fill>0</fill></PolyStyle></Style>
	<ExtendedData><SchemaData schemaUrl="#sacred_geography">
		<SimpleData name="fid">5</SimpleData>
		<SimpleData name="local_name">बैलाडीला</SimpleData>
		<SimpleData name="district">Dantewada</SimpleData>
		<SimpleData name="state">Chhattisgarh</SimpleData>
		<SimpleData name="deity">Pitod Devi, wife of nature god Nandraj — the hill is revered as her shrine</SimpleData>
		<SimpleData name="significance">Considered the abode of Nandaraj, the tribal nature god, by roughly 200 surrounding tribal villages</SimpleData>
		<SimpleData name="mining_company">NMDC (state-run); recent protests specifically target proposed Adani mining on Deposit 13</SimpleData>
	</SchemaData></ExtendedData>
      <Polygon><outerBoundaryIs><LinearRing><coordinates>81.2235466372754,19.0058159671852 81.226532842787,18.9705195491899 81.2119750909182,18.9744025213393 81.2149612964297,18.963106351175 81.2074957826509,18.9285070709974 81.2101087124735,18.8953132724449 81.2153345721187,18.8787139036922 81.1966707876715,18.8614064276949 81.1776337275354,18.8592870221393 81.1705414894455,18.8402111673559 81.1892052738926,18.8278460296868 81.1910716523373,18.7900383962946 81.1813664844248,18.759644797773 81.2052561285172,18.7437389874395 81.1903251009595,18.7327807796497 81.1970440633604,18.706266047282 81.1925647550931,18.6903552129559 81.1772604518464,18.6705529760715 81.1548639105098,18.6380157096314 81.1559837375766,18.61997606072 81.1873388954479,18.6238671273224 81.1574768403324,18.6019344979349 81.1641958027334,18.5927361024282 81.1828595871806,18.5962740056575 81.1768871761575,18.5821219518475 81.2022699230057,18.5792914000288 81.2172009505634,18.5644302319539 81.233625080877,18.5630148150766 81.2455699029231,18.575045484169 81.2575147249693,18.5969815774835 81.2634871359924,18.6132549177974 81.279911266306,18.6238671273224 81.2590078277251,18.630234135126 81.2448233515453,18.6790399323557 81.2425836974116,18.7094480346694 81.2395974919,18.7112157795813 81.2496759355015,18.7207612828623 81.253035416702,18.7363157630664 81.2627405846145,18.7511618854738 81.2646069630593,18.7656532692521 81.2672198928819,18.7847375819154 81.2605009304809,18.7953390438237 81.2634871359924,18.8220164348604 81.2601276547919,18.8361484368132 81.2601276547919,18.8541650148252 81.2575147249693,18.87323928309 81.2429569731005,18.8965493298175 81.2474362813678,18.9060843227028 81.2339983565659,18.9226809768007 81.2317587024322,18.9484554907273 81.2474362813679,18.9569284343897 81.2519155896352,18.9724610465732 81.2388509405221,18.9819917056473 81.2235466372754,19.0058159671852</coordinates></LinearRing></outerBoundaryIs></Polygon>
  </Placemark>
</Folder>
</Document></kml>
