<?xml version="1.0" encoding="UTF-8"?>
<kml xmlns="http://www.opengis.net/kml/2.2" xmlns:gx="http://www.google.com/kml/ext/2.2" xmlns:kml="http://www.opengis.net/kml/2.2" xmlns:atom="http://www.w3.org/2005/Atom">
  <Document>
    <name>Alnar77.KMZ</name>
    <Style id="point1">
      <IconStyle>
        <Icon>
          <href>kml_symbol_dot_0.png</href>
        </Icon>
      </IconStyle>
    </Style>
    <Style id="area1">
      <LineStyle>
        <color>ff0000ff</color>
      </LineStyle>
      <PolyStyle>
        <color>bf000000</color>
        <fill>0</fill>
      </PolyStyle>
    </Style>
    <Style id="line1">
      <LineStyle>
        <color>ff0000ff</color>
      </LineStyle>
    </Style>
    <Style id="point2">
      <IconStyle>
        <Icon>
          <href>kml_symbol_no symbol_0.png</href>
        </Icon>
      </IconStyle>
    </Style>
    <Folder>
      <name>Point Features</name>
      <description>Point Features</description>
      <Placemark>
        <description>0</description>
        <styleUrl>#point1</styleUrl>
        <Point>
          <coordinates>
81.2417365,18.5504490,0
</coordinates>
        </Point>
      </Placemark>
      <Placemark>
        <description>0</description>
        <styleUrl>#point1</styleUrl>
        <Point>
          <coordinates>
81.2303903,18.5536938,0
</coordinates>
        </Point>
      </Placemark>
      <Placemark>
        <name>X = 523701.0761     Y =</name>
        <description>0</description>
        <styleUrl>#point1</styleUrl>
        <Point>
          <coordinates>
81.2228949,18.5611340,0
</coordinates>
        </Point>
      </Placemark>
      <Placemark>
        <name>2052171.0260</name>
        <description>0</description>
        <styleUrl>#point1</styleUrl>
        <Point>
          <coordinates>
81.2228940,18.5611096,0
</coordinates>
        </Point>
      </Placemark>
      <Placemark>
        <name>1688</name>
        <description>TEXT</description>
        <styleUrl>#point2</styleUrl>
        <Point>
          <coordinates>
81.2398182,18.5509377,0
</coordinates>
        </Point>
      </Placemark>
      <Placemark>
        <description>0</description>
        <styleUrl>#point1</styleUrl>
        <Point>
          <coordinates>
81.2393500,18.5532408,0
</coordinates>
        </Point>
      </Placemark>
      <Placemark>
        <description>0</description>
        <styleUrl>#point1</styleUrl>
        <Point>
          <coordinates>
81.2303143,18.5509917,0
</coordinates>
        </Point>
      </Placemark>
      <Placemark>
        <description>0</description>
        <styleUrl>#point1</styleUrl>
        <Point>
          <coordinates>
81.2303094,18.5508176,0
</coordinates>
        </Point>
      </Placemark>
      <Placemark>
        <name>20</name>
        <description>NUMBER</description>
        <styleUrl>#point2</styleUrl>
        <Point>
          <coordinates>
81.2393507,18.5532519,0
</coordinates>
        </Point>
      </Placemark>
      <Placemark>
        <name>27</name>
        <description>NUMBER</description>
        <styleUrl>#point2</styleUrl>
        <Point>
          <coordinates>
81.2417579,18.5504353,0
</coordinates>
        </Point>
      </Placemark>
      <Placemark>
        <name>51</name>
        <description>NUMBER</description>
        <styleUrl>#point2</styleUrl>
        <Point>
          <coordinates>
81.2302384,18.5507870,0
</coordinates>
        </Point>
      </Placemark>
      <Placemark>
        <name>1</name>
        <description>NUMBER</description>
        <styleUrl>#point2</styleUrl>
        <Point>
          <coordinates>
81.2303368,18.5536977,0
</coordinates>
        </Point>
      </Placemark>
      <Placemark>
        <name>Lat:18° 33' 9.6788" N</name>
        <description>LB</description>
        <styleUrl>#point2</styleUrl>
        <Point>
          <coordinates>
81.2298413,18.5538424,0
</coordinates>
        </Point>
      </Placemark>
      <Placemark>
        <name>Lat:18° 33' 8.0532" N</name>
        <description>LB</description>
        <styleUrl>#point2</styleUrl>
        <Point>
          <coordinates>
81.2394596,18.5532914,0
</coordinates>
        </Point>
      </Placemark>
      <Placemark>
        <name>Lat:18° 32' 58.0033" N</name>
        <description>LB</description>
        <styleUrl>#point2</styleUrl>
        <Point>
          <coordinates>
81.2418584,18.5504377,0
</coordinates>
        </Point>
      </Placemark>
      <Placemark>
        <name>Lat:18° 32' 59.3323" N</name>
        <description>LB</description>
        <styleUrl>#point2</styleUrl>
        <Point>
          <coordinates>
81.2294115,18.5507632,0
</coordinates>
        </Point>
      </Placemark>
      <Placemark>
        <name>Long:81° 13' 55.3299"</name>
        <description>LB</description>
        <styleUrl>#point1</styleUrl>
        <Point>
          <coordinates>
81.2298461,18.5537653,0
</coordinates>
        </Point>
      </Placemark>
      <Placemark>
        <name>E</name>
        <description>LB</description>
        <styleUrl>#point1</styleUrl>
        <Point>
          <coordinates>
81.2306409,18.5537643,0
</coordinates>
        </Point>
      </Placemark>
      <Placemark>
        <name>Long:81° 14' 27.5836" E</name>
        <description>LB</description>
        <styleUrl>#point2</styleUrl>
        <Point>
          <coordinates>
81.2394612,18.5532230,0
</coordinates>
        </Point>
      </Placemark>
      <Placemark>
        <name>Long:81° 14' 36.1751" E</name>
        <description>LB</description>
        <styleUrl>#point2</styleUrl>
        <Point>
          <coordinates>
81.2418606,18.5503761,0
</coordinates>
        </Point>
      </Placemark>
      <Placemark>
        <name>Long:81° 13' 55.0305" E</name>
        <description>LB</description>
        <styleUrl>#point2</styleUrl>
        <Point>
          <coordinates>
81.2294078,18.5506805,0
</coordinates>
        </Point>
      </Placemark>
      <Placemark>
        <name>1689</name>
        <description>TEXT</description>
        <styleUrl>#point2</styleUrl>
        <Point>
          <coordinates>
81.2348028,18.5516774,0
</coordinates>
        </Point>
      </Placemark>
      <Placemark>
        <name>Area:1.4074Ha</name>
        <description>LB</description>
        <styleUrl>#point2</styleUrl>
        <Point>
          <coordinates>
81.2397863,18.5508088,0
</coordinates>
        </Point>
      </Placemark>
      <Placemark>
        <name>Area:30.14264Ha</name>
        <description>LB</description>
        <styleUrl>#point2</styleUrl>
        <Point>
          <coordinates>
81.2350323,18.5515474,0
</coordinates>
        </Point>
      </Placemark>
      <Placemark>
        <name>Lease Area:31.55ha</name>
        <description>TEXT</description>
        <styleUrl>#point2</styleUrl>
        <Point>
          <coordinates>
81.2338626,18.5501413,0
</coordinates>
        </Point>
      </Placemark>
    </Folder>
    <Folder>
      <name>Area Features</name>
      <description>Area Features</description>
      <Placemark>
        <description>LB</description>
        <styleUrl>#area1</styleUrl>
        <Polygon>
          <extrude>1</extrude>
          <outerBoundaryIs>
            <LinearRing>
              <coordinates>
81.2417365,18.5504490,0
81.2414405,18.5506270,0
81.2401357,18.5512111,0
81.2400230,18.5513295,0
81.2399187,18.5515290,0
81.2397924,18.5518968,0
81.2393500,18.5532408,0
81.2303903,18.5536938,0
81.2303094,18.5508176,0
81.2417365,18.5504490,0
</coordinates>
            </LinearRing>
          </outerBoundaryIs>
        </Polygon>
      </Placemark>
    </Folder>
    <Folder>
      <name>Line Features</name>
      <description>Line Features</description>
      <Placemark>
        <description>LB</description>
        <styleUrl>#line1</styleUrl>
        <LineString>
          <coordinates>
81.2396398,18.5505167,0
81.2399148,18.5515404,0
</coordinates>
        </LineString>
      </Placemark>
    </Folder>
  </Document>
</kml>